0 FENGYUN 1C DEB
1 35174U 99025DNE 13291.96506130  .00006151  00000-0  13143-2 0  3048
2 35174 098.9920 352.3058 0419645 318.1557 039.3428 14.16217429263900
0 FENGYUN 1C DEB
1 35174U 99025DNE 13292.95402278  .00006177  00000-0  13264-2 0  3059
2 35174 098.9958 353.2973 0418412 314.9731 041.8689 14.16229944264044
0 FENGYUN 1C DEB
1 35174U 99025DNE 13295.00276552  .00006138  00000-0  13182-2 0  3069
2 35174 098.9880 355.3837 0418261 309.2670 047.1877 14.16255051264339
